ONEWEB-0613             
1 56071U 23043AB  23297.49064895  .00000340  00000+0  87027-3 0  9992
2 56071  87.8952  91.6616 0001906  78.8296 281.3048 13.15548374 30241
ONEWEB-0630             
1 56072U 23043AC  23297.48641934  .00000143  00000+0  34446-3 0  9995
2 56072  87.8950  91.6621 0001419  76.1494 283.9794 13.15548705 30239
ONEWEB-0632             
1 56073U 23043AD  23297.48219183  .00000112  00000+0  26406-3 0  9996
2 56073  87.8954  91.6788 0002279  82.6858 277.4531 13.15550973 29324
ONEWEB-0633             
1 56074U 23043AE  23297.47580523  .00000368  00000+0  94460-3 0  9993
2 56074  87.8946  91.6731 0001322  67.9418 292.1853 13.15546040 29309
ONEWEB-0634             
1 56075U 23043AF  23297.46000121 -.00000048  00000+0 -16246-3 0  9997
2 56075  87.8952  91.6718 0001252 101.5710 258.5561 13.15550516 29297
ONEWEB-0635             
1 56076U 23043AG  23297.45469700  .00000007  00000+0 -15450-4 0  9990
2 56076  87.8933  91.7452 0002211  84.4191 275.7192 13.15547851 29324
ONEWEB-0636             
1 56077U 23043AH  23297.44624284  .00000214  00000+0  53457-3 0  9997
2 56077  87.8940  91.7101 0002526  85.8878 274.2541 13.15547902 29307
ONEWEB-0637             
1 56078U 23043AJ  23297.43993583  .00000156  00000+0  38005-3 0  9995
2 56078  87.8966  91.6734 0002114  91.6016 268.5356 13.15551457 29321
